NORAD_CAT_ID,OBJECT_NAME,OBJECT_TYPE,EPOCH,MEAN_MOTION,ECCENTRICITY,INCLINATION,RA_OF_ASC_NODE,ARG_OF_PERICENTER,MEAN_ANOMALY,BSTAR,MEAN_MOTION_DOT,MEAN_MOTION_DDOT,TLE_LINE0,TLE_LINE1,TLE_LINE2,SEMIMAJOR_AXIS,PERIOD,APOGEE,PERIGEE,DECAYED
52475.0,STARLINK-3882,PAYLOAD,2022-09-06 22:00:00,15.08794292,0.0001409,53.2171,44.237,68.3461,120.2286,0.0028266,0.00044928,0.0,0 STARLINK-3882,1 52475U 22049AA  22249.91667824  .00044928  00000-0  28266-2 0  9995,2 52475  53.2171  44.2370 0001409  68.3461 120.2286 15.08794292  1308,6918.02,95.44,540.86,538.91,0.0
52475.0,STARLINK-3882,PAYLOAD,2022-09-07 04:00:00,15.08819127,0.0001343,53.2173,43.1133,75.7894,31.454,-8.834700000000001e-05,-1.693e-05,0.0,0 STARLINK-3882,1 52475U 22049AA  22250.16667824 -.00001693  00000-0 -88347-4 0  9996,2 52475  53.2173  43.1133 0001343  75.7894  31.4540 15.08819127 19247,6917.944,95.439,540.738,538.88,0.0
52475.0,STARLINK-3882,PAYLOAD,2022-09-07 14:00:01,15.08839883,0.0001406999999999,53.2173,41.2434,75.4759,136.2263,-0.0012431,-0.00020017,0.0,0 STARLINK-3882,1 52475U 22049AA  22250.58334491 -.00020017  00000-0 -12431-2 0  9993,2 52475  53.2173  41.2434 0001407  75.4759 136.2263 15.08839883  1303,6917.880999999999,95.438,540.719,538.7719999999998,0.0
52475.0,STARLINK-3882,PAYLOAD,2022-09-07 22:00:00,15.0882137,0.0001426,53.2171,39.7477,66.7495,156.5411,0.0023552,0.00037375,0.0,0 STARLINK-3882,1 52475U 22049AA  22250.91667824  .00037375  00000-0  23552-2 0  9998,2 52475  53.2171  39.7477 0001426  66.7495 156.5411 15.08821370  1303,6917.937,95.439,540.789,538.816,0.0
52475.0,STARLINK-3882,PAYLOAD,2022-09-08 06:00:00,15.088242800000002,0.0001339,53.2173,38.2494,74.6339,160.257,0.0030261,0.00048181,0.0,0 STARLINK-3882,1 52475U 22049AA  22251.25001157  .00048181  00000-0  30261-2 0  9999,2 52475  53.2173  38.2494 0001339  74.6339 160.2570 15.08824280 19407,6917.928000000001,95.439,540.72,538.867,0.0
52475.0,STARLINK-3882,PAYLOAD,2022-09-08 14:00:01,15.08866627,0.0001418,53.2175,36.754,72.3704,174.1093,-0.0016756,-0.00026875,0.0,0 STARLINK-3882,1 52475U 22049AA  22251.58334491 -.00026875  00000-0 -16756-2 0  9996,2 52475  53.2175  36.7540 0001418  72.3704 174.1093 15.08866627  1308,6917.799,95.436,540.645,538.683,0.0
52475.0,STARLINK-3882,PAYLOAD,2022-09-08 22:00:00,15.08849313,0.0001399,53.2175,35.2582,63.3576,194.7456,-0.00025873,-4.404e-05,0.0,0 STARLINK-3882,1 52475U 22049AA  22251.91667824 -.00004404  00000-0 -25873-3 0  9997,2 52475  53.2175  35.2582 0001399  63.3576 194.7456 15.08849313 19519,6917.852,95.437,540.685,538.749,0.0
52475.0,STARLINK-3882,PAYLOAD,2022-09-09 14:00:01,15.08839163,0.0001476999999999,53.2182,32.2647,69.3908,211.9031,-0.0009346,-0.00015131,0.0,0 STARLINK-3882,1 52475U 22049AA  22252.58334491 -.00015131  00000-0 -93460-3 0  9998,2 52475  53.2182  32.2647 0001477  69.3908 211.9031 15.08839163  1309,6917.8830000000025,95.438,540.77,538.726,0.0
52475.0,STARLINK-3882,PAYLOAD,2022-09-09 22:00:00,15.08844819,0.0001516,53.2182,30.769,63.3802,229.4971,-0.00088856,-0.00014403,0.0,0 STARLINK-3882,1 52475U 22049AA  22252.91667824 -.00014403  00000-0 -88856-3 0  9998,2 52475  53.2182  30.7690 0001516  63.3802 229.4971 15.08844819  1302,6917.866,95.437,540.779,538.682,0.0
52475.0,STARLINK-3882,PAYLOAD,2022-09-10 06:00:02,15.08800811,0.0001498,53.2187,29.2708,72.523,232.0294,0.0031239,0.00049726,0.0,0 STARLINK-3882,1 52475U 22049AA  22253.25002315  .00049726  00000-0  31239-2 0  9990,2 52475  53.2187  29.2708 0001498  72.5230 232.0294 15.08800811 19712,6918.0,95.44,540.901,538.8290000000002,0.0
52475.0,STARLINK-3882,PAYLOAD,2022-09-10 14:00:01,15.08843148,0.000159,53.2189,27.7758,68.7639,247.2982,-0.0008801999999999,-0.0001426999999999,0.0,0 STARLINK-3882,1 52475U 22049AA  22253.58334491 -.00014270  00000-0 -88020-3 0  9998,2 52475  53.2189  27.7758 0001590  68.7639 247.2982 15.08843148  1303,6917.871,95.437,540.836,538.636,0.0
52475.0,STARLINK-3882,PAYLOAD,2022-09-10 22:00:00,15.08856725,0.0001531999999999,53.2188,26.2799,62.5643,265.0875,-0.0023655,-0.00037755,0.0,0 STARLINK-3882,1 52475U 22049AA  22253.91667824 -.00037755  00000-0 -23655-2 0  9999,2 52475  53.2188  26.2799 0001532  62.5643 265.0875 15.08856725 19813,6917.829000000002,95.436,540.754,538.634,0.0
52475.0,STARLINK-3882,PAYLOAD,2022-09-11 14:00:01,15.08852977,0.0001453,53.2194,23.2871,65.4335,285.409,-0.00090981,-0.00014743,0.0,0 STARLINK-3882,1 52475U 22049AA  22254.58334491 -.00014743  00000-0 -90981-3 0  9993,2 52475  53.2194  23.2871 0001453  65.4335 285.4090 15.08852977 19911,6917.840999999999,95.437,540.711,538.701,0.0
52475.0,STARLINK-3882,PAYLOAD,2022-09-11 22:00:00,15.08861394,0.0001399,53.2191,21.791,59.2855,303.1577,-0.0025936999999999,-0.00041354,0.0,0 STARLINK-3882,1 52475U 22049AA  22254.91667824 -.00041354  00000-0 -25937-2 0  9995,2 52475  53.2191  21.7910 0001399  59.2855 303.1577 15.08861394  1307,6917.815,95.436,540.648,538.712,0.0
52475.0,STARLINK-3882,PAYLOAD,2022-09-12 14:00:01,15.08834335,0.0001440999999999,53.2193,18.7987,64.6777,320.9703,-0.00081657,-0.00013258,0.0,0 STARLINK-3882,1 52475U 22049AA  22255.58334491 -.00013258  00000-0 -81657-3 0  9994,2 52475  53.2193  18.7987 0001441  64.6777 320.9703 15.08834335  1303,6917.898,95.438,540.76,538.766,0.0
52475.0,STARLINK-3882,PAYLOAD,2022-09-12 22:00:00,15.08856047,0.0001460999999999,53.2189,17.3023,61.1443,336.088,-0.0012075999999999,-0.00019464,0.0,0 STARLINK-3882,1 52475U 22049AA  22255.91667824 -.00019464  00000-0 -12076-2 0  9993,2 52475  53.2189  17.3023 0001461  61.1443 336.0880 15.08856047  1306,6917.831,95.437,540.707,538.686,0.0
52475.0,STARLINK-3882,PAYLOAD,2022-09-13 14:00:01,15.08857174,0.0001537,53.2189,14.3102,64.778,355.6494,-0.0023046,-0.00036796,0.0,0 STARLINK-3882,1 52475U 22049AA  22256.58334491 -.00036796  00000-0 -23046-2 0  9994,2 52475  53.2189  14.3102 0001537  64.7780 355.6494 15.08857174  1308,6917.828,95.436,540.756,538.63,0.0
52475.0,STARLINK-3882,PAYLOAD,2022-09-13 22:00:00,15.08849444,0.0001508,53.2185,12.8137,61.4767,10.5464,-0.0038790999999999,-0.00061513,0.0,0 STARLINK-3882,1 52475U 22049AA  22256.91667824 -.00061513  00000-0 -38791-2 0  9998,2 52475  53.2185  12.8137 0001508  61.4767  10.5464 15.08849444  1307,6917.852,95.437,540.76,538.673,0.0
52475.0,STARLINK-3882,PAYLOAD,2022-09-14 06:00:00,15.08787621,0.0001465999999999,53.2185,11.3161,72.0969,11.5089,0.0033304,0.00053038,0.0,0 STARLINK-3882,1 52475U 22049AA  22257.25001157  .00053038  00000-0  33304-2 0  9993,2 52475  53.2185  11.3161 0001466  72.0969  11.5089 15.08787621 20317,6918.04,95.441,540.92,538.891,0.0
52475.0,STARLINK-3882,PAYLOAD,2022-09-14 14:00:01,15.08801341,0.000144,53.2179,9.8216,60.7549,34.412,0.0031146999999999,0.00049579,0.0,0 STARLINK-3882,1 52475U 22049AA  22257.58334491  .00049579  00000-0  31147-2 0  9997,2 52475  53.2179   9.8216 0001440  60.7549  34.4120 15.08801341  1307,6917.999,95.44,540.86,538.867,0.0
52475.0,STARLINK-3882,PAYLOAD,2022-09-14 22:00:00,15.08842104,0.0001559,53.2182,8.325,61.7344,44.9933,-0.00062916,-0.00010288,0.0,0 STARLINK-3882,1 52475U 22049AA  22257.91667824 -.00010288  00000-0 -62916-3 0  9999,2 52475  53.2182   8.3250 0001559  61.7344  44.9933 15.08842104 20411,6917.874,95.437,540.817,538.66,0.0
52475.0,STARLINK-3882,PAYLOAD,2022-09-15 14:00:01,15.08845835,0.0001551,53.2182,5.3328,61.4478,68.4889,-0.00092039,-0.00014908,0.0,0 STARLINK-3882,1 52475U 22049AA  22258.58334491 -.00014908  00000-0 -92039-3 0  9996,2 52475  53.2182   5.3328 0001551  61.4478  68.4889 15.08845835  1303,6917.863,95.437,540.8009999999998,538.655,0.0
52475.0,STARLINK-3882,PAYLOAD,2022-09-15 19:47:09,15.0884693,0.0001609,53.2187,4.2491,63.9163,296.1994,0.00049325,7.572e-05,0.0,0 STARLINK-3882,1 52475U 22049AA  22258.82441796  .00007572  00000-0  49325-3 0  9997,2 52475  53.2187   4.2491 0001609  63.9163 296.1994 15.08846930 20393,6917.859,95.437,540.837,538.611,0.0
52475.0,STARLINK-3882,PAYLOAD,2022-09-16 13:16:24,15.08843955,0.0001595,53.2185,0.9785,62.869,297.2465,0.0002376,3.496e-05,0.0,0 STARLINK-3882,1 52475U 22049AA  22259.55305808  .00003496  00000-0  23760-3 0  9997,2 52475  53.2185   0.9785 0001595  62.8690 297.2465 15.08843955 20666,6917.868,95.437,540.837,538.63,0.0
52475.0,STARLINK-3882,PAYLOAD,2022-09-17 11:31:47,15.08844311,0.0001591,53.2189,356.8156,63.2042,296.9113,7.1269e-05,8.47e-06,0.0,0 STARLINK-3882,1 52475U 22049AA  22260.48041512  .00000847  00000-0  71269-4 0  9995,2 52475  53.2189 356.8156 0001591  63.2042 296.9113 15.08844311 20648,6917.8669999999975,95.437,540.8330000000002,538.632,0.0
52475.0,STARLINK-3882,PAYLOAD,2022-09-17 16:17:57,15.08848628,0.0001528,53.2189,355.9234,63.6514,296.4635,0.00015626,2.2e-05,0.0,0 STARLINK-3882,1 52475U 22049AA  22260.67913272  .00002200  00000-0  15626-3 0  9996,2 52475  53.2189 355.9234 0001528  63.6514 296.4635 15.08848628 20833,6917.854,95.437,540.776,538.6619999999998,0.0
52475.0,STARLINK-3882,PAYLOAD,2022-09-18 01:50:16,15.08838739,0.0001689,53.2197,354.14,72.1846,287.9331,-1.5759e-05,-5.39e-06,0.0,0 STARLINK-3882,1 52475U 22049AA  22261.07657783 -.00000539  00000-0 -15759-4 0  9996,2 52475  53.2197 354.1400 0001689  72.1846 287.9331 15.08838739 20895,6917.884,95.438,540.918,538.581,0.0
52475.0,STARLINK-3882,PAYLOAD,2022-09-18 11:22:35,15.08828778,0.0001720999999999,53.2195,352.3567,49.6962,310.418,-0.00010899,-2.022e-05,0.0,0 STARLINK-3882,1 52475U 22049AA  22261.47402580 -.00002022  00000-0 -10899-3 0  9991,2 52475  53.2195 352.3567 0001721  49.6962 310.4180 15.08828778 20955,6917.915,95.438,540.97,538.589,0.0
52475.0,STARLINK-3882,PAYLOAD,2022-09-18 12:57:58,15.08830238,0.0001460999999999,53.2193,352.0575,65.4551,294.6594,-9.6719e-05,-1.826e-05,0.0,0 STARLINK-3882,1 52475U 22049AA  22261.54026424 -.00001826  00000-0 -96719-4 0  9995,2 52475  53.2193 352.0575 0001461  65.4551 294.6594 15.08830238 20800,6917.91,95.438,540.786,538.765,0.0
